ISS (ZARYA)             
1 25544U 98067A   26182.50000000  .00016717  00000-0  10270-3 0  9023
2 25544  51.6400 200.1234 0007500  50.1234 310.5678 15.48919755412345
