{
  "description": "Mock CelesTrak API response for ISS in JSON (OMM) format",
  "mock_type": "celestrak_gp_json",
  "satellite": "ISS (ZARYA)",
  "norad_id": 25544,
  "response": [
    {
      "OBJECT_NAME": "ISS (ZARYA)",
      "OBJECT_ID": "1998-067A",
      "EPOCH": "2026-07-01T12:00:00.000000",
      "MEAN_MOTION": 15.48919755,
      "ECCENTRICITY": 0.00075,
      "INCLINATION": 51.64,
      "RA_OF_ASC_NODE": 200.1234,
      "ARG_OF_PERICENTER": 50.1234,
      "MEAN_ANOMALY": 310.5678,
      "EPHEMERIS_TYPE": 0,
      "CLASSIFICATION_TYPE": "U",
      "NORAD_CAT_ID": 25544,
      "ELEMENT_SET_NO": 999,
      "REV_AT_EPOCH": 41234,
      "BSTAR": 0.0001027,
      "MEAN_MOTION_DOT": 0.00016717,
      "MEAN_MOTION_DDOT": 0
    }
  ]
}
